NORAD_CAT_ID,OBJECT_NAME,OBJECT_TYPE,EPOCH,MEAN_MOTION,ECCENTRICITY,INCLINATION,RA_OF_ASC_NODE,ARG_OF_PERICENTER,MEAN_ANOMALY,BSTAR,MEAN_MOTION_DOT,MEAN_MOTION_DDOT,TLE_LINE0,TLE_LINE1,TLE_LINE2,SEMIMAJOR_AXIS,PERIOD,APOGEE,PERIGEE,DECAYED
54803.0,STARLINK-5430,PAYLOAD,2023-07-10 03:50:17,15.08845744,0.0001132,53.2173,94.1304,91.3207,268.7915,2.5568e-05,1.19e-06,0.0,0 STARLINK-5430,1 54803U 22175AX  23191.15992888  .00000119  00000-0  25568-4 0  9994,2 54803  53.2173  94.1304 0001132  91.3207 268.7915 15.08845744 30796,6917.863,95.437,540.511,538.945,0.0
54803.0,STARLINK-5430,PAYLOAD,2023-07-10 18:08:47,15.08830228,0.0001088,53.2173,91.4544,96.2311,263.8805,4.2077e-05,3.82e-06,0.0,0 STARLINK-5430,1 54803U 22175AX  23191.75609984  .00000382  00000-0  42077-4 0  9998,2 54803  53.2173  91.4544 0001088  96.2311 263.8805 15.08830228 30887,6917.91,95.438,540.528,539.023,0.0
54803.0,STARLINK-5430,PAYLOAD,2023-07-11 03:41:05,15.08837865,0.0001087,53.2175,89.6703,95.8325,264.2791,9.6439e-05,1.247e-05,0.0,0 STARLINK-5430,1 54803U 22175AX  23192.15353480  .00001247  00000-0  96439-4 0  9992,2 54803  53.2175  89.6703 0001087  95.8325 264.2791 15.08837865 30944,6917.887,95.438,540.504,539.0,0.0
54803.0,STARLINK-5430,PAYLOAD,2023-07-11 19:34:57,15.08836176,0.0001091,53.2173,86.6965,105.1131,254.9982,2.383e-06,-2.5e-06,0.0,0 STARLINK-5430,1 54803U 22175AX  23192.81594056 -.00000250  00000-0  23830-5 0  9991,2 54803  53.2173  86.6965 0001091 105.1131 254.9982 15.08836176 31048,6917.892,95.438,540.512,539.002,0.0
54803.0,STARLINK-5430,PAYLOAD,2023-07-13 00:11:53,15.08842128,0.0001199,53.2176,81.3433,86.2781,273.8348,7.1397e-05,8.49e-06,0.0,0 STARLINK-5430,1 54803U 22175AX  23194.00825657  .00000849  00000-0  71397-4 0  9991,2 54803  53.2176  81.3433 0001199  86.2781 273.8348 15.08842128 31222,6917.874,95.437,540.568,538.909,0.0
54803.0,STARLINK-5430,PAYLOAD,2023-07-14 01:38:03,15.0884296,0.0001144,53.2171,76.5855,92.1961,267.9163,2.4212e-05,9.8e-07,0.0,0 STARLINK-5430,1 54803U 22175AX  23195.06809795  .00000098  00000-0  24212-4 0  9993,2 54803  53.2171  76.5855 0001144  92.1961 267.9163 15.08842960 31387,6917.871,95.437,540.528,538.945,0.0
54803.0,STARLINK-5430,PAYLOAD,2023-07-15 01:28:49,15.08856917,0.0001421,53.2174,72.1233,106.2093,253.9055,6.6674e-05,7.74e-06,0.0,0 STARLINK-5430,1 54803U 22175AX  23196.06168528  .00000774  00000-0  66674-4 0  9995,2 54803  53.2174  72.1233 0001421 106.2093 253.9055 15.08856917 31532,6917.829,95.436,540.677,538.711,0.0
54803.0,STARLINK-5430,PAYLOAD,2023-07-15 22:08:51,15.08837513,0.0001143,53.2176,68.2574,91.2877,268.8246,2.8862e-05,1.72e-06,0.0,0 STARLINK-5430,1 54803U 22175AX  23196.92282071  .00000172  00000-0  28862-4 0  9999,2 54803  53.2176  68.2574 0001143  91.2877 268.8246 15.08837513 31664,6917.888,95.438,540.544,538.962,0.0
54803.0,STARLINK-5430,PAYLOAD,2023-07-16 21:59:38,15.08846356,0.0001152,53.2177,63.798,77.1626,282.9494,-2.7149e-05,-7.2e-06,0.0,0 STARLINK-5430,1 54803U 22175AX  23197.91641910 -.00000720  00000-0 -27149-4 0  9998,2 54803  53.2177  63.7980 0001152  77.1626 282.9494 15.08846356 31815,6917.861,95.437,540.523,538.929,0.0
54803.0,STARLINK-5430,PAYLOAD,2023-07-18 01:01:11,15.08848989,0.0001201,53.2181,58.7423,77.6939,282.4188,0.00018686,2.688e-05,0.0,0 STARLINK-5430,1 54803U 22175AX  23199.04249287  .00002688  00000-0  18686-3 0  9993,2 54803  53.2181  58.7423 0001201  77.6939 282.4188 15.08848989 31980,6917.853,95.437,540.549,538.887,0.0
54803.0,STARLINK-5430,PAYLOAD,2023-07-18 20:05:50,15.08838751,0.0001102,53.2171,55.1685,94.9402,265.1716,1.0169e-05,-1.26e-06,0.0,0 STARLINK-5430,1 54803U 22175AX  23199.83738508 -.00000126  00000-0  10169-4 0  9994,2 54803  53.2171  55.1685 0001102  94.9402 265.1716 15.08838751 32103,6917.884,95.438,540.512,538.987,0.0
54803.0,STARLINK-5430,PAYLOAD,2023-07-19 16:45:51,15.08832069,0.0001018,53.2171,51.3093,104.5413,255.5692,-2.5314e-05,-6.9e-06,0.0,0 STARLINK-5430,1 54803U 22175AX  23200.69851230 -.00000690  00000-0 -25314-4 0  9994,2 54803  53.2171  51.3093 0001018 104.5413 255.5692 15.08832069 32236,6917.905,95.438,540.474,539.065,0.0
54803.0,STARLINK-5430,PAYLOAD,2023-07-20 16:36:37,15.08842461,9.15e-05,53.2175,46.8503,91.4534,268.6563,0.00018078,2.591e-05,0.0,0 STARLINK-5430,1 54803U 22175AX  23201.69210442  .00002591  00000-0  18078-3 0  9997,2 54803  53.2175  46.8503 0000915  91.4534 268.6563 15.08842461 32383,6917.873,95.437,540.371,539.105,0.0
54803.0,STARLINK-5430,PAYLOAD,2023-07-20 22:58:09,15.08852053,8.76e-05,53.2174,45.6603,95.5439,264.5653,0.00022678,3.324e-05,0.0,0 STARLINK-5430,1 54803U 22175AX  23201.95705718  .00003324  00000-0  22678-3 0  9997,2 54803  53.2174  45.6603 0000876  95.5439 264.5653 15.08852053 32423,6917.844,95.437,540.315,539.103,0.0
54803.0,STARLINK-5430,PAYLOAD,2023-07-21 08:30:29,15.08838095,9.41e-05,53.2176,43.8762,97.7411,262.3688,0.00019867,2.875e-05,0.0,0 STARLINK-5430,1 54803U 22175AX  23202.35450741  .00002875  00000-0  19867-3 0  9991,2 54803  53.2176  43.8762 0000941  97.7411 262.3688 15.08838095 32488,6917.886,95.438,540.402,539.1,0.0
54803.0,STARLINK-5430,PAYLOAD,2023-07-24 12:48:59,15.08841286,0.0001113,53.2167,29.6012,123.1234,236.9865,6.2458e-05,7.06e-06,0.0,0 STARLINK-5430,1 54803U 22175AX  23205.53402747  .00000706  00000-0  62458-4 0  9993,2 54803  53.2167  29.6012 0001113 123.1234 236.9865 15.08841286 35121,6917.876,95.437,540.511,538.971,0.0
54803.0,STARLINK-5430,PAYLOAD,2023-07-25 12:39:47,15.08835399,0.0001359,53.216,25.1413,104.0141,256.1002,1.4884e-05,-5.1e-07,0.0,0 STARLINK-5430,1 54803U 22175AX  23206.52763206 -.00000051  00000-0  14884-4 0  9997,2 54803  53.2160  25.1413 0001359 104.0141 256.1002 15.08835399 35278,6917.894,95.438,540.7,538.819,0.0
54803.0,STARLINK-5430,PAYLOAD,2023-07-26 10:55:11,15.08841565,8.87e-05,53.2178,20.9798,97.2646,262.8447,0.00012226,1.659e-05,0.0,0 STARLINK-5430,1 54803U 22175AX  23207.45499039  .00001659  00000-0  12226-3 0  9991,2 54803  53.2178  20.9798 0000887  97.2646 262.8447 15.08841565 35419,6917.876,95.437,540.354,539.127,0.0
54803.0,STARLINK-5430,PAYLOAD,2023-07-26 14:05:57,15.08844522,8.64e-05,53.2173,20.3846,95.4443,264.6648,6.7467e-05,7.86e-06,0.0,0 STARLINK-5430,1 54803U 22175AX  23207.58746885  .00000786  00000-0  67467-4 0  9997,2 54803  53.2173  20.3846 0000864  95.4443 264.6648 15.08844522 33273,6917.867,95.437,540.329,539.134,0.0
54803.0,STARLINK-5430,PAYLOAD,2023-07-27 10:45:58,15.08841999,0.0001571,53.2152,16.524,64.7414,295.3741,3.9667e-05,3.43e-06,0.0,0 STARLINK-5430,1 54803U 22175AX  23208.44859088  .00000343  00000-0  39667-4 0  9993,2 54803  53.2152  16.5240 0001571  64.7414 295.3741 15.08841999 35562,6917.874,95.437,540.826,538.652,0.0
54803.0,STARLINK-5430,PAYLOAD,2023-07-27 13:56:45,15.08826007,9.62e-05,53.217,15.9254,62.0885,298.0204,-0.00017901,-3.134e-05,0.0,0 STARLINK-5430,1 54803U 22175AX  23208.58107766 -.00003134  00000-0 -17901-3 0  9996,2 54803  53.2170  15.9254 0000962  62.0885 298.0204 15.08826007 33426,6917.923,95.438,540.454,539.123,0.0
54803.0,STARLINK-5430,PAYLOAD,2023-07-27 20:18:17,15.08834342,0.000107,53.2172,14.7342,79.9536,280.1576,2.3576e-05,8.7e-07,0.0,0 STARLINK-5430,1 54803U 22175AX  23208.84603687  .00000087  00000-0  23576-4 0  9996,2 54803  53.2172  14.7342 0001070  79.9536 280.1576 15.08834342 35623,6917.898,95.438,540.503,539.022,0.0
54803.0,STARLINK-5430,PAYLOAD,2023-07-28 10:36:45,15.08837914,9.29e-05,53.2173,12.0585,79.4373,280.6724,8.9869e-05,1.143e-05,0.0,0 STARLINK-5430,1 54803U 22175AX  23209.44219687  .00001143  00000-0  89869-4 0  9997,2 54803  53.2173  12.0585 0000929  79.4373 280.6724 15.08837914 35718,6917.887,95.438,540.394,539.109,0.0
54803.0,STARLINK-5430,PAYLOAD,2023-07-28 16:58:18,15.08841753,8.27e-05,53.2173,10.8697,71.5917,288.5165,0.00015279,2.145e-05,0.0,0 STARLINK-5430,1 54803U 22175AX  23209.70715565  .00002145  00000-0  15279-3 0  9998,2 54803  53.2173  10.8697 0000827  71.5917 288.5165 15.08841753 33598,6917.875,95.437,540.312,539.168,0.0
54803.0,STARLINK-5430,PAYLOAD,2023-07-29 10:27:33,15.08838153,9.62e-05,53.2166,7.5986,69.9363,290.1732,0.00020812,3.026e-05,0.0,0 STARLINK-5430,1 54803U 22175AX  23210.43579939  .00003026  00000-0  20812-3 0  9991,2 54803  53.2166   7.5986 0000962  69.9363 290.1732 15.08838153 33702,6917.886,95.438,540.417,539.086,0.0
54803.0,STARLINK-5430,PAYLOAD,2023-07-30 16:39:52,15.08847517,9.83e-05,53.2171,1.9478,79.6706,280.4397,0.0001562,2.2e-05,0.0,0 STARLINK-5430,1 54803U 22175AX  23211.69435414  .00002200  00000-0  15620-3 0  9993,2 54803  53.2171   1.9478 0000983  79.6706 280.4397 15.08847517 33897,6917.857,95.437,540.402,539.042,0.0
54803.0,STARLINK-5430,PAYLOAD,2023-07-31 10:09:07,15.08838131,9.46e-05,53.2176,358.6779,78.1037,282.0062,4.9901e-05,5.06e-06,0.0,0 STARLINK-5430,1 54803U 22175AX  23212.42299821  .00000506  00000-0  49901-4 0  9992,2 54803  53.2176 358.6779 0000946  78.1037 282.0062 15.08838131 34001,6917.886,95.438,540.406,539.097,0.0
54803.0,STARLINK-5430,PAYLOAD,2023-08-01 16:21:26,15.08842938,9.44e-05,53.2175,353.0275,87.4819,272.6281,0.00011799,1.591e-05,0.0,0 STARLINK-5430,1 54803U 22175AX  23213.68155545  .00001591  00000-0  11799-3 0  9993,2 54803  53.2175 353.0275 0000944  87.4819 272.6281 15.08842938 34197,6917.871,95.437,540.389,539.083,0.0
54803.0,STARLINK-5430,PAYLOAD,2023-08-02 09:50:40,15.08859753,9.67e-05,53.2167,349.757,86.8493,273.261,-0.0005915,-9.694e-05,0.0,0 STARLINK-5430,1 54803U 22175AX  23214.41018597 -.00009694  00000-0 -59150-3 0  9997,2 54803  53.2167 349.7570 0000967  86.8493 273.2610 15.08859753 34303,6917.82,95.436,540.354,539.016,0.0
54803.0,STARLINK-5430,PAYLOAD,2023-08-02 16:12:13,15.08846066,0.0001046,53.2178,348.5685,81.4553,278.6558,0.00017637,2.521e-05,0.0,0 STARLINK-5430,1 54803U 22175AX  23214.67515339  .00002521  00000-0  17637-3 0  9995,2 54803  53.2178 348.5685 0001046  81.4553 278.6558 15.08846066 34343,6917.862,95.437,540.45,539.003,0.0
